{"fetched_at":"2026-03-29T16:36:15Z","count":15609,"tles":[{"name":"STARLINK-30934","line1":"1 58395U 23178X   26087.79359454  .00000956  00000+0  44395-4 0  9998","line2":"2 58395  53.1605 272.5979 0001165  85.5381 274.5753 15.30194697132741","category":"Starlink"}]}