{
  "norad_id": 58395,
  "name": "STARLINK-30934",
  "history": [
    {
      "epoch": "2026-03-28T19:02:46.568256",
      "apogee_km": 476.0297318299836,
      "perigee_km": 474.4320747043739,
      "latitude_deg": -33.09758176252678,
      "longitude_deg": 95.68507583998144,
      "semi_major_axis_km": 6853.367903267179,
      "eccentricity": 0.00011656,
      "inclination_deg": 53.1605,
      "raan_deg": 272.5979,
      "arg_perigee_deg": 85.5381,
      "mean_anomaly_deg": 274.5753,
      "mean_motion_rev_day": 15.30194697
    }
  ]
}